NORAD_CAT_ID,OBJECT_NAME,OBJECT_TYPE,EPOCH,MEAN_MOTION,ECCENTRICITY,INCLINATION,RA_OF_ASC_NODE,ARG_OF_PERICENTER,MEAN_ANOMALY,BSTAR,MEAN_MOTION_DOT,MEAN_MOTION_DDOT,TLE_LINE0,TLE_LINE1,TLE_LINE2,SEMIMAJOR_AXIS,PERIOD,APOGEE,PERIGEE,DECAYED
53178.0,STARLINK-4280,PAYLOAD,2024-06-20 02:59:17,15.0883778,0.0001358,53.2172,101.3712,82.76,277.3546,3.3005e-05,2.37e-06,0.0,0 STARLINK-4280,1 53178U 22083AY  24172.12451253  .00000237  00000-0  33005-4 0  9995,2 53178  53.2172 101.3712 0001358  82.7600 277.3546 15.08837780107235,6917.887,95.438,540.692,538.813,0.0
53178.0,STARLINK-4280,PAYLOAD,2024-06-20 12:31:35,15.08849806,0.0001371,53.2172,99.5881,86.6942,273.4207,5.1958e-05,5.39e-06,0.0,0 STARLINK-4280,1 53178U 22083AY  24172.52194314  .00000539  00000-0  51958-4 0  9993,2 53178  53.2172  99.5881 0001371  86.6942 273.4207 15.08849806106666,6917.85,95.437,540.664,538.767,0.0
53178.0,STARLINK-4280,PAYLOAD,2024-06-20 18:53:08,15.08837164,0.0001286,53.2152,98.4006,89.5739,270.5401,8.2832e-05,1.031e-05,0.0,0 STARLINK-4280,1 53178U 22083AY  24172.78690917  .00001031  00000-0  82832-4 0  9994,2 53178  53.2152  98.4006 0001286  89.5739 270.5401 15.08837164106705,6917.889,95.438,540.644,538.864,0.0
53178.0,STARLINK-4280,PAYLOAD,2024-06-21 04:25:28,15.08839036,0.0001355,53.2172,96.6112,94.3029,265.8118,9.2383e-07,-2.73e-06,0.0,0 STARLINK-4280,1 53178U 22083AY  24173.18435254 -.00000273  00000-0  92383-6 0  9992,2 53178  53.2172  96.6112 0001355  94.3029 265.8118 15.08839036107396,6917.883,95.438,540.686,538.811,0.0
53178.0,STARLINK-4280,PAYLOAD,2024-06-22 04:16:14,15.08844165,0.0001309,53.2172,92.1504,113.4657,246.6472,-8.2269e-06,-4.19e-06,0.0,0 STARLINK-4280,1 53178U 22083AY  24174.17794928 -.00000419  00000-0 -82269-5 0  9992,2 53178  53.2172  92.1504 0001309 113.4657 246.6472 15.08844165106917,6917.868,95.437,540.638,538.827,0.0
53178.0,STARLINK-4280,PAYLOAD,2024-06-22 21:45:29,15.08835078,0.0001367,53.2167,88.879,104.8732,255.2412,6.9657e-05,8.21e-06,0.0,0 STARLINK-4280,1 53178U 22083AY  24174.90659308  .00000821  00000-0  69657-4 0  9995,2 53178  53.2167  88.8790 0001367 104.8732 255.2412 15.08835078107028,6917.895,95.438,540.706,538.815,0.0
53178.0,STARLINK-4280,PAYLOAD,2024-06-23 04:07:02,15.08837486,0.0001389,53.2173,87.6896,105.7896,254.3249,3.7778e-05,3.13e-06,0.0,0 STARLINK-4280,1 53178U 22083AY  24175.17155317  .00000313  00000-0  37778-4 0  9991,2 53178  53.2173  87.6896 0001389 105.7896 254.3249 15.08837486107690,6917.888,95.438,540.714,538.792,0.0
53178.0,STARLINK-4280,PAYLOAD,2024-06-23 21:36:16,15.08840295,0.0001333,53.2172,84.4187,101.0179,259.0963,3.1276e-05,2.1e-06,0.0,0 STARLINK-4280,1 53178U 22083AY  24175.90019192  .00000210  00000-0  31276-4 0  9995,2 53178  53.2172  84.4187 0001333 101.0179 259.0963 15.08840295107179,6917.879,95.438,540.667,538.822,0.0
53178.0,STARLINK-4280,PAYLOAD,2024-06-24 00:47:02,15.08841037,0.0001353,53.2174,83.8239,101.0018,259.1127,3.6224e-05,2.89e-06,0.0,0 STARLINK-4280,1 53178U 22083AY  24176.03267123  .00000289  00000-0  36224-4 0  9993,2 53178  53.2174  83.8239 0001353 101.0018 259.1127 15.08841037107196,6917.877,95.437,540.678,538.806,0.0
53178.0,STARLINK-4280,PAYLOAD,2024-06-24 21:27:03,15.08837605,0.0001342,53.2175,79.9594,97.056,263.0585,1.9111e-05,1.6e-07,0.0,0 STARLINK-4280,1 53178U 22083AY  24176.89379462  .00000016  00000-0  19111-4 0  9991,2 53178  53.2175  79.9594 0001342  97.0560 263.0585 15.08837605107324,6917.888,95.438,540.681,538.824,0.0
53178.0,STARLINK-4280,PAYLOAD,2024-06-24 23:02:27,15.08837347,0.0001342,53.2176,79.662,97.8619,262.2525,1.6189e-05,-3e-07,0.0,0 STARLINK-4280,1 53178U 22083AY  24176.96003491 -.00000030  00000-0  16189-4 0  9994,2 53178  53.2176  79.6620 0001342  97.8619 262.2525 15.08837347107963,6917.888,95.438,540.682,538.825,0.0
53178.0,STARLINK-4280,PAYLOAD,2024-06-25 22:53:13,15.0883925,0.0001399,53.2179,75.2027,99.2824,260.8327,3.233e-05,2.27e-06,0.0,0 STARLINK-4280,1 53178U 22083AY  24177.95363416  .00000227  00000-0  32330-4 0  9993,2 53178  53.2179  75.2027 0001399  99.2824 260.8327 15.08839250107481,6917.883,95.438,540.715,538.78,0.0
53178.0,STARLINK-4280,PAYLOAD,2024-06-26 22:44:01,15.08832925,0.000128,53.2173,70.7428,81.3029,278.8108,-1.8979e-06,-3.18e-06,0.0,0 STARLINK-4280,1 53178U 22083AY  24178.94724272 -.00000318  00000-0 -18979-5 0  9991,2 53178  53.2173  70.7428 0001280  81.3029 278.8108 15.08832925107633,6917.902,95.438,540.653,538.882,0.0
53178.0,STARLINK-4280,PAYLOAD,2024-06-27 00:19:24,15.08832972,0.0001304,53.2173,70.4431,86.8764,273.2377,-1.6321e-06,-3.14e-06,0.0,0 STARLINK-4280,1 53178U 22083AY  24179.01348250 -.00000314  00000-0 -16321-5 0  9993,2 53178  53.2173  70.4431 0001304  86.8764 273.2377 15.08832972108277,6917.902,95.438,540.669,538.865,0.0
53178.0,STARLINK-4280,PAYLOAD,2024-06-27 09:51:43,15.0884371,0.0001235,53.2168,68.6634,83.6864,276.4269,7.3305e-05,8.79e-06,0.0,0 STARLINK-4280,1 53178U 22083AY  24179.41091450  .00000879  00000-0  73305-4 0  9992,2 53178  53.2168  68.6634 0001235  83.6864 276.4269 15.08843710108338,6917.869,95.437,540.588,538.88,0.0
53178.0,STARLINK-4280,PAYLOAD,2024-06-27 20:59:25,15.08840629,0.0001645,53.2168,66.5773,77.2003,282.9173,-2.7525e-05,-7.26e-06,0.0,0 STARLINK-4280,1 53178U 22083AY  24179.87460112 -.00000726  00000-0 -27525-4 0  9993,2 53178  53.2168  66.5773 0001645  77.2003 282.9173 15.08840629108408,6917.878,95.438,540.881,538.605,0.0
53178.0,STARLINK-4280,PAYLOAD,2024-06-27 22:34:49,15.08831461,0.0001113,53.2164,66.2842,90.4074,269.7046,1.4293e-06,-2.65e-06,0.0,0 STARLINK-4280,1 53178U 22083AY  24179.94084513 -.00000265  00000-0  14293-5 0  9994,2 53178  53.2164  66.2842 0001113  90.4074 269.7046 15.08831461107789,6917.906,95.438,540.541,539.002,0.0
53178.0,STARLINK-4280,PAYLOAD,2024-06-28 09:42:29,15.08858919,0.0001138,53.2171,64.1958,70.6155,289.496,4.2377e-05,3.87e-06,0.0,0 STARLINK-4280,1 53178U 22083AY  24180.40450258  .00000387  00000-0  42377-4 0  9997,2 53178  53.2171  64.1958 0001138  70.6155 289.4960 15.08858919108488,6917.823,95.436,540.475,538.9,0.0
53178.0,STARLINK-4280,PAYLOAD,2024-06-28 20:50:12,15.08836883,0.0001124,53.2166,62.1167,87.0607,273.0514,-3.0481e-05,-7.73e-06,0.0,0 STARLINK-4280,1 53178U 22083AY  24180.86820184 -.00000773  00000-0 -30481-4 0  9990,2 53178  53.2166  62.1167 0001124  87.0607 273.0514 15.08836883108559,6917.89,95.438,540.532,538.977,0.0
53178.0,STARLINK-4280,PAYLOAD,2024-06-28 22:25:35,15.08839409,0.0001332,53.2169,61.8194,85.8967,274.2177,-7.5376e-06,-4.08e-06,0.0,0 STARLINK-4280,1 53178U 22083AY  24180.93444011 -.00000408  00000-0 -75376-5 0  9997,2 53178  53.2169  61.8194 0001332  85.8967 274.2177 15.08839409107930,6917.882,95.438,540.669,538.826,0.0
53178.0,STARLINK-4280,PAYLOAD,2024-06-29 19:05:37,15.08826657,0.0001013,53.2171,57.95,81.0016,279.1091,-1.724e-05,-5.62e-06,0.0,0 STARLINK-4280,1 53178U 22083AY  24181.79557099 -.00000562  00000-0 -17240-4 0  9999,2 53178  53.2171  57.9500 0001013  81.0016 279.1091 15.08826657108693,6917.921,95.438,540.487,539.085,0.0
53178.0,STARLINK-4280,PAYLOAD,2024-06-29 22:16:24,15.08821473,0.0001204,53.2175,57.3598,102.8632,257.2495,-0.00018075,-3.162e-05,0.0,0 STARLINK-4280,1 53178U 22083AY  24181.92806010 -.00003162  00000-0 -18075-3 0  9999,2 53178  53.2175  57.3598 0001204 102.8632 257.2495 15.08821473108085,6917.937,95.439,540.635,538.969,0.0
53178.0,STARLINK-4280,PAYLOAD,2024-06-30 01:27:10,15.0882299,0.0001179,53.2175,56.7637,107.1363,252.9759,-0.00016303,-2.88e-05,0.0,0 STARLINK-4280,1 53178U 22083AY  24182.06053959 -.00002880  00000-0 -16303-3 0  9999,2 53178  53.2175  56.7637 0001179 107.1363 252.9759 15.08822990108734,6917.932,95.439,540.613,538.982,0.0
53178.0,STARLINK-4280,PAYLOAD,2024-06-30 20:31:47,15.08835328,0.0001195,53.2179,53.1976,86.5682,273.5447,9.9029e-05,1.288e-05,0.0,0 STARLINK-4280,1 53178U 22083AY  24182.85540592  .00001288  00000-0  99029-4 0  9996,2 53178  53.2179  53.1976 0001195  86.5682 273.5447 15.08835328108852,6917.895,95.438,540.586,538.933,0.0
53178.0,STARLINK-4280,PAYLOAD,2024-06-30 22:07:09,15.08848425,0.0001219,53.2175,52.9011,89.6737,270.4395,0.000186,2.674e-05,0.0,0 STARLINK-4280,1 53178U 22083AY  24182.92163642  .00002674  00000-0  18600-3 0  9996,2 53178  53.2175  52.9011 0001219  89.6737 270.4395 15.08848425108239,6917.855,95.437,540.563,538.876,0.0
53178.0,STARLINK-4280,PAYLOAD,2024-07-01 01:17:55,15.08850058,0.0001261,53.2176,52.3048,105.7949,254.3182,0.00019785,2.863e-05,0.0,0 STARLINK-4280,1 53178U 22083AY  24183.05411367  .00002863  00000-0  19785-3 0  9996,2 53178  53.2176  52.3048 0001261 105.7949 254.3182 15.08850058108887,6917.85,95.437,540.587,538.842,0.0
53178.0,STARLINK-4280,PAYLOAD,2024-07-01 20:22:34,15.08830861,0.0001154,53.2173,48.7347,117.6754,242.4355,0.00020337,2.949e-05,0.0,0 STARLINK-4280,1 53178U 22083AY  24183.84900495  .00002949  00000-0  20337-3 0  9998,2 53178  53.2173  48.7347 0001154 117.6754 242.4355 15.08830861109007,6917.908,95.438,540.572,538.975,0.0
53178.0,STARLINK-4280,PAYLOAD,2024-07-01 21:57:57,15.08826592,9.67e-05,53.2174,48.4411,97.1797,262.9305,0.0001992,2.883e-05,0.0,0 STARLINK-4280,1 53178U 22083AY  24183.91524833  .00002883  00000-0  19920-3 0  9997,2 53178  53.2174  48.4411 0000967  97.1797 262.9305 15.08826592108385,6917.921,95.438,540.455,539.117,0.0
53178.0,STARLINK-4280,PAYLOAD,2024-07-02 07:30:15,15.08838927,0.0001039,53.2185,46.6556,94.8336,265.2775,0.00021517,3.138e-05,0.0,0 STARLINK-4280,1 53178U 22083AY  24184.31268130  .00003138  00000-0  21517-3 0  9996,2 53178  53.2185  46.6556 0001039  94.8336 265.2775 15.08838927109070,6917.884,95.438,540.467,539.03,0.0
53178.0,STARLINK-4280,PAYLOAD,2024-07-02 20:13:21,15.08839987,0.0001142,53.2186,44.2769,106.0818,254.03,-0.000143,-2.563e-05,0.0,0 STARLINK-4280,1 53178U 22083AY  24184.84261251 -.00002563  00000-0 -14300-3 0  9996,2 53178  53.2186  44.2769 0001142 106.0818 254.0300 15.08839987109153,6917.88,95.438,540.535,538.955,0.0
